[{"OBJECT_NAME":"SHIYAN-20C (SY-20C)","OBJECT_ID":"2022-142A","EPOCH":"2026-03-09T23:50:52.089216","MEAN_MOTION":14.29489925,"ECCENTRICITY":0.00131159,"INCLINATION":59.9943,"RA_OF_ASC_NODE":268.1651,"ARG_OF_PERICENTER":188.0899,"MEAN_ANOMALY":171.9927,"EPHEMERIS_TYPE":0,"CLASSIFICATION_TYPE":"U","NORAD_CAT_ID":54214,"ELEMENT_SET_NO":999,"REV_AT_EPOCH":17551,"BSTAR":7.6576353e-5,"MEAN_MOTION_DOT":6.0e-7,"MEAN_MOTION_DDOT":0},{"OBJECT_NAME":"CZ-6A DEB","OBJECT_ID":"2024-140YM","EPOCH":"2026-03-09T14:15:37.372320","MEAN_MOTION":14.34138836,"ECCENTRICITY":0.004481,"INCLINATION":88.9779,"RA_OF_ASC_NODE":283.3666,"ARG_OF_PERICENTER":204.493,"MEAN_ANOMALY":155.414,"EPHEMERIS_TYPE":0,"CLASSIFICATION_TYPE":"U","NORAD_CAT_ID":61420,"ELEMENT_SET_NO":999,"REV_AT_EPOCH":7647,"BSTAR":0.00085165,"MEAN_MOTION_DOT":2.424e-5,"MEAN_MOTION_DDOT":0}]
